{
  "type": "FeatureCollection",
  "features": [
    {
      "type": "Feature",
      "properties": {
        "norad_id": 34036,
        "name": "COSMOS 2251 DEB",
        "group": "cosmos-2251-debris",
        "lat": 15.693283888621805,
        "lon": 123.86025489099262,
        "alt_km": 582.9507482685522,
        "timestamp": "2025-12-27T14:26:30.914962+00:00",
        "meta_object_name": "COSMOS 2251 DEB",
        "meta_object_id": "1993-036HX",
        "meta_epoch": "2025-12-27T03:08:08.391552",
        "meta_mean_motion": 14.96157297,
        "meta_eccentricity": 0.00093075,
        "meta_inclination": 74.0194,
        "meta_ra_of_asc_node": 120.1943,
        "meta_arg_of_pericenter": 144.5258,
        "meta_mean_anomaly": 215.6548,
        "meta_ephemeris_type": 0,
        "meta_classification_type": "U",
        "meta_norad_cat_id": 34036,
        "meta_element_set_no": 999,
        "meta_rev_at_epoch": 88785,
        "meta_bstar": 0.00477827,
        "meta_mean_motion_dot": 0.00054256,
        "meta_mean_motion_ddot": 0,
        "tle_line1": "1 34036U 93036HX  25361.13065268  .00054256  00000+0  47783-2 0  9997",
        "tle_line2": "2 34036  74.0194 120.1943 0009307 144.5258 215.6548 14.96157297887859"
      },
      "geometry": {
        "type": "Point",
        "coordinates": [
          123.86025489099262,
          15.693283888621805
        ]
      }
    },
    {
      "type": "Feature",
      "properties": {
        "norad_id": 34037,
        "name": "COSMOS 2251 DEB",
        "group": "cosmos-2251-debris",
        "lat": 58.387150103619845,
        "lon": 50.92541267266568,
        "alt_km": 733.1967642555892,
        "timestamp": "2025-12-27T14:26:30.914973+00:00",
        "meta_object_name": "COSMOS 2251 DEB",
        "meta_object_id": "1993-036HY",
        "meta_epoch": "2025-12-27T04:06:49.459392",
        "meta_mean_motion": 14.34701761,
        "meta_eccentricity": 0.00518291,
        "meta_inclination": 74.0508,
        "meta_ra_of_asc_node": 24.0281,
        "meta_arg_of_pericenter": 69.5269,
        "meta_mean_anomaly": 291.1436,
        "meta_ephemeris_type": 0,
        "meta_classification_type": "U",
        "meta_norad_cat_id": 34037,
        "meta_element_set_no": 999,
        "meta_rev_at_epoch": 87924,
        "meta_bstar": 0.00049446524,
        "meta_mean_motion_dot": 1.396e-05,
        "meta_mean_motion_ddot": 0,
        "tle_line1": "1 34037U 93036HY  25361.17140578  .00001396  00000+0  49447-3 0  9997",
        "tle_line2": "2 34037  74.0508  24.0281 0051829  69.5269 291.1436 14.34701761879242"
      },
      "geometry": {
        "type": "Point",
        "coordinates": [
          50.92541267266568,
          58.387150103619845
        ]
      }
    },
    {
      "type": "Feature",
      "properties": {
        "norad_id": 34040,
        "name": "COSMOS 2251 DEB",
        "group": "cosmos-2251-debris",
        "lat": 9.326724131575341,
        "lon": 44.01368008780688,
        "alt_km": 764.6769911058836,
        "timestamp": "2025-12-27T14:26:30.914983+00:00",
        "meta_object_name": "COSMOS 2251 DEB",
        "meta_object_id": "1993-036JB",
        "meta_epoch": "2025-12-27T03:52:14.862432",
        "meta_mean_motion": 13.68401974,
        "meta_eccentricity": 0.03435032,
        "meta_inclination": 73.9553,
        "meta_ra_of_asc_node": 42.0324,
        "meta_arg_of_pericenter": 352.4928,
        "meta_mean_anomaly": 7.1115,
        "meta_ephemeris_type": 0,
        "meta_classification_type": "U",
        "meta_norad_cat_id": 34040,
        "meta_element_set_no": 999,
        "meta_rev_at_epoch": 83797,
        "meta_bstar": 0.00098962302,
        "meta_mean_motion_dot": 1.254e-05,
        "meta_mean_motion_ddot": 0,
        "tle_line1": "1 34040U 93036JB  25361.16128313  .00001254  00000+0  98962-3 0  9992",
        "tle_line2": "2 34040  73.9553  42.0324 0343503 352.4928   7.1115 13.68401974837973"
      },
      "geometry": {
        "type": "Point",
        "coordinates": [
          44.01368008780688,
          9.326724131575341
        ]
      }
    },
    {
      "type": "Feature",
      "properties": {
        "norad_id": 34045,
        "name": "COSMOS 2251 DEB",
        "group": "cosmos-2251-debris",
        "lat": 68.02231900673998,
        "lon": -31.197826791324285,
        "alt_km": 765.16352434278,
        "timestamp": "2025-12-27T14:26:30.914993+00:00",
        "meta_object_name": "COSMOS 2251 DEB",
        "meta_object_id": "1993-036JG",
        "meta_epoch": "2025-12-27T06:17:04.640064",
        "meta_mean_motion": 14.34077221,
        "meta_eccentricity": 0.00262715,
        "meta_inclination": 74.0395,
        "meta_ra_of_asc_node": 284.26,
        "meta_arg_of_pericenter": 3.8971,
        "meta_mean_anomaly": 116.52,
        "meta_ephemeris_type": 0,
        "meta_classification_type": "U",
        "meta_norad_cat_id": 34045,
        "meta_element_set_no": 999,
        "meta_rev_at_epoch": 88241,
        "meta_bstar": 0.00011388767,
        "meta_mean_motion_dot": 2.94e-06,
        "meta_mean_motion_ddot": 0,
        "tle_line1": "1 34045U 93036JG  25361.26185926  .00000294  00000+0  11389-3 0  9992",
        "tle_line2": "2 34045  74.0395 284.2600 0026271   3.8971 116.5200 14.34077221882413"
      },
      "geometry": {
        "type": "Point",
        "coordinates": [
          -31.197826791324285,
          68.02231900673998
        ]
      }
    },
    {
      "type": "Feature",
      "properties": {
        "norad_id": 34046,
        "name": "COSMOS 2251 DEB",
        "group": "cosmos-2251-debris",
        "lat": 8.143463449054021,
        "lon": -14.93205578026228,
        "alt_km": 706.2548677076593,
        "timestamp": "2025-12-27T14:26:30.915004+00:00",
        "meta_object_name": "COSMOS 2251 DEB",
        "meta_object_id": "1993-036JH",
        "meta_epoch": "2025-12-27T01:27:51.526656",
        "meta_mean_motion": 14.46595121,
        "meta_eccentricity": 0.00745858,
        "meta_inclination": 74.0401,
        "meta_ra_of_asc_node": 343.7303,
        "meta_arg_of_pericenter": 62.966,
        "meta_mean_anomaly": 11.4385,
        "meta_ephemeris_type": 0,
        "meta_classification_type": "U",
        "meta_norad_cat_id": 34046,
        "meta_element_set_no": 999,
        "meta_rev_at_epoch": 88033,
        "meta_bstar": 0.0015685989,
        "meta_mean_motion_dot": 5.834e-05,
        "meta_mean_motion_ddot": 0,
        "tle_line1": "1 34046U 93036JH  25361.06101304  .00005834  00000+0  15686-2 0  9997",
        "tle_line2": "2 34046  74.0401 343.7303 0074585  62.9660  11.4385 14.46595121880338"
      },
      "geometry": {
        "type": "Point",
        "coordinates": [
          -14.93205578026228,
          8.143463449054021
        ]
      }
    },
    {
      "type": "Feature",
      "properties": {
        "norad_id": 34050,
        "name": "COSMOS 2251 DEB",
        "group": "cosmos-2251-debris",
        "lat": 68.8384229810354,
        "lon": 32.02554723919188,
        "alt_km": 764.5213831019146,
        "timestamp": "2025-12-27T14:26:30.915014+00:00",
        "meta_object_name": "COSMOS 2251 DEB",
        "meta_object_id": "1993-036JM",
        "meta_epoch": "2025-12-27T00:35:49.722720",
        "meta_mean_motion": 13.96216103,
        "meta_eccentricity": 0.02148948,
        "meta_inclination": 74.0883,
        "meta_ra_of_asc_node": 345.5468,
        "meta_arg_of_pericenter": 46.2323,
        "meta_mean_anomaly": 10.0062,
        "meta_ephemeris_type": 0,
        "meta_classification_type": "U",
        "meta_norad_cat_id": 34050,
        "meta_element_set_no": 999,
        "meta_rev_at_epoch": 85631,
        "meta_bstar": 0.00095534712,
        "meta_mean_motion_dot": 1.573e-05,
        "meta_mean_motion_ddot": 0,
        "tle_line1": "1 34050U 93036JM  25361.02488105  .00001573  00000+0  95535-3 0  9993",
        "tle_line2": "2 34050  74.0883 345.5468 0214894  46.2323  10.0062 13.96216103856311"
      },
      "geometry": {
        "type": "Point",
        "coordinates": [
          32.02554723919188,
          68.8384229810354
        ]
      }
    },
    {
      "type": "Feature",
      "properties": {
        "norad_id": 34053,
        "name": "COSMOS 2251 DEB",
        "group": "cosmos-2251-debris",
        "lat": 54.37574871242469,
        "lon": -117.9142931905881,
        "alt_km": 873.943891617635,
        "timestamp": "2025-12-27T14:26:30.915024+00:00",
        "meta_object_name": "COSMOS 2251 DEB",
        "meta_object_id": "1993-036JQ",
        "meta_epoch": "2025-12-26T15:02:38.951808",
        "meta_mean_motion": 13.49181379,
        "meta_eccentricity": 0.0422948,
        "meta_inclination": 73.8425,
        "meta_ra_of_asc_node": 219.7929,
        "meta_arg_of_pericenter": 6.0641,
        "meta_mean_anomaly": 354.5355,
        "meta_ephemeris_type": 0,
        "meta_classification_type": "U",
        "meta_norad_cat_id": 34053,
        "meta_element_set_no": 999,
        "meta_rev_at_epoch": 82871,
        "meta_bstar": 0.00055816,
        "meta_mean_motion_dot": 5.87e-06,
        "meta_mean_motion_ddot": 0,
        "tle_line1": "1 34053U 93036JQ  25360.62683972  .00000587  00000+0  55816-3 0  9992",
        "tle_line2": "2 34053  73.8425 219.7929 0422948   6.0641 354.5355 13.49181379828713"
      },
      "geometry": {
        "type": "Point",
        "coordinates": [
          -117.9142931905881,
          54.37574871242469
        ]
      }
    }
  ]
}